{"type": "FeatureCollection", "features": [ {"type": "Feature", "properties": {"norad_id": 66850, "name": "STARLINK-36105", "group": "last-30-days", "lat": 42.96791729676945, "lon": 125.14518563347842, "alt_km": 408.9834796820769, "timestamp": "2025-12-27T11:23:18.579806+00:00", "meta": {"OBJECT_NAME": "STARLINK-36105", "OBJECT_ID": "2025-281C", "EPOCH": "2025-12-27T04:00:01.998720", "MEAN_MOTION": 15.50602067, "ECCENTRICITY": 0.00011, "INCLINATION": 43.0004, "RA_OF_ASC_NODE": 35.2831, "ARG_OF_PERICENTER": 242.5323, "MEAN_ANOMALY": 288.2973, "EPHEMERIS_TYPE": 0, "CLASSIFICATION_TYPE": "U", "NORAD_CAT_ID": 66850, "ELEMENT_SET_NO": 999, "REV_AT_EPOCH": 370, "BSTAR": -0.0015626, "MEAN_MOTION_DOT": -0.00091023, "MEAN_MOTION_DDOT": 0}, "tle": {"line1": "1 66850U 25281C   25361.16668980 -.00091023  00000+0 -15626-2 0  9992", "line2": "2 66850  43.0004  35.2831 0001100 242.5323 288.2973 15.50602067  3704"}}, "geometry": {"type": "Point", "coordinates": [125.14518563347842, 42.96791729676945]}}, {"type": "Feature", "properties": {"norad_id": 66851, "name": "STARLINK-36094", "group": "last-30-days", "lat": 42.90037263260664, "lon": 127.74523353620849, "alt_km": 408.7475969579755, "timestamp": "2025-12-27T11:23:18.579816+00:00", "meta": {"OBJECT_NAME": "STARLINK-36094", "OBJECT_ID": "2025-281D", "EPOCH": "2025-12-27T04:00:01.998720", "MEAN_MOTION": 15.50604, "ECCENTRICITY": 8.94e-05, "INCLINATION": 43.0002, "RA_OF_ASC_NODE": 35.2773, "ARG_OF_PERICENTER": 228.2425, "MEAN_ANOMALY": 304.4902, "EPHEMERIS_TYPE": 0, "CLASSIFICATION_TYPE": "U", "NORAD_CAT_ID": 66851, "ELEMENT_SET_NO": 999, "REV_AT_EPOCH": 370, "BSTAR": -0.0014414, "MEAN_MOTION_DOT": -0.0008407, "MEAN_MOTION_DDOT": 0}, "tle": {"line1": "1 66851U 25281D   25361.16668980 -.00084070  00000+0 -14414-2 0  9991", "line2": "2 66851  43.0002  35.2773 0000894 228.2425 304.4902 15.50604000  3703"}}, "geometry": {"type": "Point", "coordinates": [127.74523353620849, 42.90037263260664]}}, {"type": "Feature", "properties": {"norad_id": 66852, "name": "STARLINK-35992", "group": "last-30-days", "lat": 42.7728503567342, "lon": 130.3615547641635, "alt_km": 408.3905288553842, "timestamp": "2025-12-27T11:23:18.579828+00:00", "meta": {"OBJECT_NAME": "STARLINK-35992", "OBJECT_ID": "2025-281E", "EPOCH": "2025-12-27T04:00:01.998720", "MEAN_MOTION": 15.50687943, "ECCENTRICITY": 2.04e-05, "INCLINATION": 43.0003, "RA_OF_ASC_NODE": 35.2737, "ARG_OF_PERICENTER": 251.5759, "MEAN_ANOMALY": 283.0131, "EPHEMERIS_TYPE": 0, "CLASSIFICATION_TYPE": "U", "NORAD_CAT_ID": 66852, "ELEMENT_SET_NO": 999, "REV_AT_EPOCH": 370, "BSTAR": -0.0030735, "MEAN_MOTION_DOT": -0.00177294, "MEAN_MOTION_DDOT": 0}, "tle": {"line1": "1 66852U 25281E   25361.16668980 -.00177294  00000+0 -30735-2 0  9997", "line2": "2 66852  43.0003  35.2737 0000204 251.5759 283.0131 15.50687943  3702"}}, "geometry": {"type": "Point", "coordinates": [130.3615547641635, 42.7728503567342]}}, {"type": "Feature", "properties": {"norad_id": 66853, "name": "STARLINK-35986", "group": "last-30-days", "lat": 42.58627004135773, "lon": 132.95745952281604, "alt_km": 408.40921845484354, "timestamp": "2025-12-27T11:23:18.579840+00:00", "meta": {"OBJECT_NAME": "STARLINK-35986", "OBJECT_ID": "2025-281F", "EPOCH": "2025-12-27T04:00:01.998720", "MEAN_MOTION": 15.50686291, "ECCENTRICITY": 1.71e-05, "INCLINATION": 43.0003, "RA_OF_ASC_NODE": 35.2686, "ARG_OF_PERICENTER": 264.2847, "MEAN_ANOMALY": 272.2236, "EPHEMERIS_TYPE": 0, "CLASSIFICATION_TYPE": "U", "NORAD_CAT_ID": 66853, "ELEMENT_SET_NO": 999, "REV_AT_EPOCH": 370, "BSTAR": -0.0030496, "MEAN_MOTION_DOT": -0.00175937, "MEAN_MOTION_DDOT": 0}, "tle": {"line1": "1 66853U 25281F   25361.16668980 -.00175937  00000+0 -30496-2 0  9994", "line2": "2 66853  43.0003  35.2686 0000171 264.2847 272.2236 15.50686291  3709"}}, "geometry": {"type": "Point", "coordinates": [132.95745952281604, 42.58627004135773]}}, {"type": "Feature", "properties": {"norad_id": 66854, "name": "STARLINK-36087", "group": "last-30-days", "lat": 42.342756019716546, "lon": 135.52165909756184, "alt_km": 408.4548406955373, "timestamp": "2025-12-27T11:23:18.579850+00:00", "meta": {"OBJECT_NAME": "STARLINK-36087", "OBJECT_ID": "2025-281G", "EPOCH": "2025-12-27T04:00:01.998720", "MEAN_MOTION": 15.5068237, "ECCENTRICITY": 2.37e-05, "INCLINATION": 43.0003, "RA_OF_ASC_NODE": 35.2639, "ARG_OF_PERICENTER": 260.8603, "MEAN_ANOMALY": 277.5531, "EPHEMERIS_TYPE": 0, "CLASSIFICATION_TYPE": "U", "NORAD_CAT_ID": 66854, "ELEMENT_SET_NO": 999, "REV_AT_EPOCH": 370, "BSTAR": -0.0026717, "MEAN_MOTION_DOT": -0.00154576, "MEAN_MOTION_DDOT": 0}, "tle": {"line1": "1 66854U 25281G   25361.16668980 -.00154576  00000+0 -26717-2 0  9992", "line2": "2 66854  43.0003  35.2639 0000237 260.8603 277.5531 15.50682370  3703"}}, "geometry": {"type": "Point", "coordinates": [135.52165909756184, 42.342756019716546]}}, {"type": "Feature", "properties": {"norad_id": 66855, "name": "STARLINK-36090", "group": "last-30-days", "lat": 42.041472322233744, "lon": 138.07099374012546, "alt_km": 408.47491889277353, "timestamp": "2025-12-27T11:23:18.579863+00:00", "meta": {"OBJECT_NAME": "STARLINK-36090", "OBJECT_ID": "2025-281H", "EPOCH": "2025-12-27T04:00:01.998720", "MEAN_MOTION": 15.50704501, "ECCENTRICITY": 2e-05, "INCLINATION": 43.0003, "RA_OF_ASC_NODE": 35.2595, "ARG_OF_PERICENTER": 288.8872, "MEAN_ANOMALY": 251.4234, "EPHEMERIS_TYPE": 0, "CLASSIFICATION_TYPE": "U", "NORAD_CAT_ID": 66855, "ELEMENT_SET_NO": 999, "REV_AT_EPOCH": 358, "BSTAR": -0.0031613, "MEAN_MOTION_DOT": -0.00182342, "MEAN_MOTION_DDOT": 0}, "tle": {"line1": "1 66855U 25281H   25361.16668980 -.00182342  00000+0 -31613-2 0  9996", "line2": "2 66855  43.0003  35.2595 0000200 288.8872 251.4234 15.50704501  3581"}}, "geometry": {"type": "Point", "coordinates": [138.07099374012546, 42.041472322233744]}}, {"type": "Feature", "properties": {"norad_id": 66856, "name": "STARLINK-36072", "group": "last-30-days", "lat": 41.67886201016744, "lon": 140.62678780746162, "alt_km": 409.24474436805576, "timestamp": "2025-12-27T11:23:18.579873+00:00", "meta": {"OBJECT_NAME": "STARLINK-36072", "OBJECT_ID": "2025-281J", "EPOCH": "2025-12-27T04:00:01.998720", "MEAN_MOTION": 15.50656677, "ECCENTRICITY": 0.0001108, "INCLINATION": 43.0002, "RA_OF_ASC_NODE": 35.2539, "ARG_OF_PERICENTER": 262.0517, "MEAN_ANOMALY": 280.2548, "EPHEMERIS_TYPE": 0, "CLASSIFICATION_TYPE": "U", "NORAD_CAT_ID": 66856, "ELEMENT_SET_NO": 999, "REV_AT_EPOCH": 370, "BSTAR": -0.0031317, "MEAN_MOTION_DOT": -0.00180389, "MEAN_MOTION_DDOT": 0}, "tle": {"line1": "1 66856U 25281J   25361.16668980 -.00180389  00000+0 -31317-2 0  9997", "line2": "2 66856  43.0002  35.2539 0001108 262.0517 280.2548 15.50656677  3709"}}, "geometry": {"type": "Point", "coordinates": [140.62678780746162, 41.67886201016744]}}, {"type": "Feature", "properties": {"norad_id": 66857, "name": "STARLINK-36083", "group": "last-30-days", "lat": 41.26482160525359, "lon": 143.12655326989557, "alt_km": 409.34665674166536, "timestamp": "2025-12-27T11:23:18.579885+00:00", "meta": {"OBJECT_NAME": "STARLINK-36083", "OBJECT_ID": "2025-281K", "EPOCH": "2025-12-27T04:00:01.998720", "MEAN_MOTION": 15.50650432, "ECCENTRICITY": 0.0001199, "INCLINATION": 43.0003, "RA_OF_ASC_NODE": 35.249, "ARG_OF_PERICENTER": 258.0818, "MEAN_ANOMALY": 286.1512, "EPHEMERIS_TYPE": 0, "CLASSIFICATION_TYPE": "U", "NORAD_CAT_ID": 66857, "ELEMENT_SET_NO": 999, "REV_AT_EPOCH": 370, "BSTAR": -0.0030698, "MEAN_MOTION_DOT": -0.00176871, "MEAN_MOTION_DDOT": 0}, "tle": {"line1": "1 66857U 25281K   25361.16668980 -.00176871  00000+0 -30698-2 0  9990", "line2": "2 66857  43.0003  35.2490 0001199 258.0818 286.1512 15.50650432  3705"}}, "geometry": {"type": "Point", "coordinates": [143.12655326989557, 41.26482160525359]}}, {"type": "Feature", "properties": {"norad_id": 66858, "name": "STARLINK-35118", "group": "last-30-days", "lat": 40.80030190686109, "lon": 145.57641413371857, "alt_km": 409.3545460900623, "timestamp": "2025-12-27T11:23:18.579897+00:00", "meta": {"OBJECT_NAME": "STARLINK-35118", "OBJECT_ID": "2025-281L", "EPOCH": "2025-12-27T04:00:01.998720", "MEAN_MOTION": 15.50628367, "ECCENTRICITY": 0.00014, "INCLINATION": 43.0002, "RA_OF_ASC_NODE": 35.2441, "ARG_OF_PERICENTER": 241.5015, "MEAN_ANOMALY": 304.6536, "EPHEMERIS_TYPE": 0, "CLASSIFICATION_TYPE": "U", "NORAD_CAT_ID": 66858, "ELEMENT_SET_NO": 999, "REV_AT_EPOCH": 349, "BSTAR": -0.0023667, "MEAN_MOTION_DOT": -0.00137025, "MEAN_MOTION_DDOT": 0}, "tle": {"line1": "1 66858U 25281L   25361.16668980 -.00137025  00000+0 -23667-2 0  9997", "line2": "2 66858  43.0002  35.2441 0001400 241.5015 304.6536 15.50628367  3492"}}, "geometry": {"type": "Point", "coordinates": [145.57641413371857, 40.80030190686109]}}, {"type": "Feature", "properties": {"norad_id": 66859, "name": "STARLINK-35646", "group": "last-30-days", "lat": 40.28170535872061, "lon": 148.00313308137513, "alt_km": 409.2676392780886, "timestamp": "2025-12-27T11:23:18.579907+00:00", "meta": {"OBJECT_NAME": "STARLINK-35646", "OBJECT_ID": "2025-281M", "EPOCH": "2025-12-27T04:00:01.998720", "MEAN_MOTION": 15.50576984, "ECCENTRICITY": 9.29e-05, "INCLINATION": 43.0002, "RA_OF_ASC_NODE": 35.2391, "ARG_OF_PERICENTER": 259.3541, "MEAN_ANOMALY": 288.7355, "EPHEMERIS_TYPE": 0, "CLASSIFICATION_TYPE": "U", "NORAD_CAT_ID": 66859, "ELEMENT_SET_NO": 999, "REV_AT_EPOCH": 370, "BSTAR": -0.00071623, "MEAN_MOTION_DOT": -0.00042129, "MEAN_MOTION_DDOT": 0}, "tle": {"line1": "1 66859U 25281M   25361.16668980 -.00042129  00000+0 -71623-3 0  9994", "line2": "2 66859  43.0002  35.2391 0000929 259.3541 288.7355 15.50576984  3705"}}, "geometry": {"type": "Point", "coordinates": [148.00313308137513, 40.28170535872061]}}]}